NORAD_CAT_ID,OBJECT_NAME,OBJECT_TYPE,EPOCH,MEAN_MOTION,ECCENTRICITY,INCLINATION,RA_OF_ASC_NODE,ARG_OF_PERICENTER,MEAN_ANOMALY,BSTAR,MEAN_MOTION_DOT,MEAN_MOTION_DDOT,TLE_LINE0,TLE_LINE1,TLE_LINE2,SEMIMAJOR_AXIS,PERIOD,APOGEE,PERIGEE,DECAYED
55438.0,STARLINK-5074,PAYLOAD,2024-03-24 04:19:13,14.98339906,0.0002487,70.0008,68.3409,265.6627,94.4248,0.00012451,1.393e-05,0.0,0 STARLINK-5074,1 55438U 23014AZ  24084.18001252  .00001393  00000-0  12451-3 0  9994,2 55438  70.0008  68.3409 0002487 265.6627  94.4248 14.98339906 63942,6950.162,96.106,573.756,570.299,0.0
55438.0,STARLINK-5074,PAYLOAD,2024-03-24 09:07:36,14.98347475,0.0002399,70.0003,67.8359,257.5951,102.494,0.00012474,1.396e-05,0.0,0 STARLINK-5074,1 55438U 23014AZ  24084.38028649  .00001396  00000-0  12474-3 0  9993,2 55438  70.0003  67.8359 0002399 257.5951 102.4940 14.98347475 64914,6950.139,96.106,573.671,570.337,0.0
55438.0,STARLINK-5074,PAYLOAD,2024-03-25 04:21:14,14.98323757,0.0002746,70.0,65.815,271.0913,88.9931,0.00030191,3.511e-05,0.0,0 STARLINK-5074,1 55438U 23014AZ  24085.18141681  .00003511  00000-0  30191-3 0  9991,2 55438  70.0000  65.8150 0002746 271.0913  88.9931 14.98323757 64097,6950.212,96.107,573.986,570.169,0.0
55438.0,STARLINK-5074,PAYLOAD,2024-03-25 15:34:12,14.98314297,0.0001471,70.0052,64.6352,295.4508,64.6499,0.00017114,1.949e-05,0.0,0 STARLINK-5074,1 55438U 23014AZ  24085.64875104  .00001949  00000-0  17114-3 0  9999,2 55438  70.0052  64.6352 0001471 295.4508  64.6499 14.98314297 64166,6950.241,96.108,573.129,571.084,0.0
55438.0,STARLINK-5074,PAYLOAD,2024-03-26 04:23:16,14.98331757,0.0002695,70.0008,63.2911,269.3786,90.7064,-0.00020159,-2.497e-05,0.0,0 STARLINK-5074,1 55438U 23014AZ  24086.18282509 -.00002497  00000-0 -20159-3 0  9994,2 55438  70.0008  63.2911 0002695 269.3786  90.7064 14.98331757 64247,6950.187,96.107,573.926,570.179,0.0
55438.0,STARLINK-5074,PAYLOAD,2024-03-26 07:35:32,14.98331874,0.0002804,70.0007,62.9549,269.0759,91.0079,-0.0002226,-2.748e-05,0.0,0 STARLINK-5074,1 55438U 23014AZ  24086.31634464 -.00002748  00000-0 -22260-3 0  9994,2 55438  70.0007  62.9549 0002804 269.0759  91.0079 14.98331874 65205,6950.187,96.107,574.001,570.103,0.0
55438.0,STARLINK-5074,PAYLOAD,2024-03-26 15:36:12,14.98328378,0.0002879,70.0007,62.1125,270.2453,89.8376,-0.00029548,-3.617e-05,0.0,0 STARLINK-5074,1 55438U 23014AZ  24086.65014839 -.00003617  00000-0 -29548-3 0  9991,2 55438  70.0007  62.1125 0002879 270.2453  89.8376 14.98328378 65259,6950.198,96.107,574.064,570.062,0.0
55438.0,STARLINK-5074,PAYLOAD,2024-03-27 04:25:16,14.98332744,0.0002879,70.0004,60.7655,259.5348,100.5486,-8.1435e-05,-1.065e-05,0.0,0 STARLINK-5074,1 55438U 23014AZ  24087.18422118 -.00001065  00000-0 -81435-4 0  9992,2 55438  70.0004  60.7655 0002879 259.5348 100.5486 14.98332744 64390,6950.184,96.107,574.05,570.048,0.0
55438.0,STARLINK-5074,PAYLOAD,2024-03-27 07:37:31,14.98347603,0.0002888,70.0008,60.4292,261.3371,98.7461,9.7552e-05,1.072e-05,0.0,0 STARLINK-5074,1 55438U 23014AZ  24087.31772625  .00001072  00000-0  97552-4 0  9991,2 55438  70.0008  60.4292 0002888 261.3371  98.7461 14.98347603 64419,6950.138,96.106,574.011,569.996,0.0
55438.0,STARLINK-5074,PAYLOAD,2024-03-27 22:02:44,14.9833595,0.000285,70.001,58.9141,271.4665,88.6167,0.00020108,2.307e-05,0.0,0 STARLINK-5074,1 55438U 23014AZ  24087.91856760  .00002307  00000-0  20108-3 0  9994,2 55438  70.0010  58.9141 0002850 271.4665  88.6167 14.98335950 65441,6950.174,96.107,574.02,570.059,0.0
55438.0,STARLINK-5074,PAYLOAD,2024-03-28 04:27:16,14.98331,0.0002777,70.001,58.2391,257.6391,102.4457,0.00016522,1.879e-05,0.0,0 STARLINK-5074,1 55438U 23014AZ  24088.18561022  .00001879  00000-0  16522-3 0  9996,2 55438  70.0010  58.2391 0002777 257.6391 102.4457 14.98331000 64540,6950.19,96.107,573.985,570.125,0.0
55438.0,STARLINK-5074,PAYLOAD,2024-03-28 07:39:32,14.98334139,0.0002887,70.001,57.9027,262.8242,97.2588,0.00016503,1.877e-05,0.0,0 STARLINK-5074,1 55438U 23014AZ  24088.31912810  .00001877  00000-0  16503-3 0  9993,2 55438  70.0010  57.9027 0002887 262.8242  97.2588 14.98334139 65506,6950.18,96.107,574.052,570.039,0.0
55438.0,STARLINK-5074,PAYLOAD,2024-03-28 22:04:45,14.98331465,0.0003149,70.0011,56.3882,268.3351,91.7447,0.00011268,1.252e-05,0.0,0 STARLINK-5074,1 55438U 23014AZ  24088.91996949  .00001252  00000-0  11268-3 0  9994,2 55438  70.0011  56.3882 0003149 268.3351  91.7447 14.98331465 65594,6950.188,96.107,574.242,569.865,0.0
55438.0,STARLINK-5074,PAYLOAD,2024-03-29 04:29:17,14.98333301,0.0002904,70.0012,55.7167,266.3,93.7827,8.3516e-05,9.04e-06,0.0,0 STARLINK-5074,1 55438U 23014AZ  24089.18700867  .00000904  00000-0  83516-4 0  9995,2 55438  70.0012  55.7167 0002904 266.3000  93.7827 14.98333301 64696,6950.183,96.107,574.066,570.029,0.0
55438.0,STARLINK-5074,PAYLOAD,2024-03-29 07:41:33,14.98334594,0.0003081,70.0012,55.3803,267.4531,92.6275,0.00010203,1.125e-05,0.0,0 STARLINK-5074,1 55438U 23014AZ  24089.32052651  .00001125  00000-0  10203-3 0  9990,2 55438  70.0012  55.3803 0003081 267.4531  92.6275 14.98334594 65654,6950.179,96.107,574.185,569.902,0.0
55438.0,STARLINK-5074,PAYLOAD,2024-03-29 22:06:46,14.98333583,0.0003025,70.0018,53.8649,272.5337,87.5476,-3.6511e-05,-5.29e-06,0.0,0 STARLINK-5074,1 55438U 23014AZ  24089.92136690 -.00000529  00000-0 -36511-4 0  9992,2 55438  70.0018  53.8649 0003025 272.5337  87.5476 14.98333583 65743,6950.182,96.107,574.149,569.944,0.0
55438.0,STARLINK-5074,PAYLOAD,2024-03-30 04:31:18,14.98333804,0.0003094,70.0012,53.1915,271.0809,88.9995,-8.7038e-05,-1.131e-05,0.0,0 STARLINK-5074,1 55438U 23014AZ  24090.18840717 -.00001131  00000-0 -87038-4 0  9994,2 55438  70.0012  53.1915 0003094 271.0809  88.9995 14.98333804 64847,6950.181,96.107,574.197,569.896,0.0
55438.0,STARLINK-5074,PAYLOAD,2024-03-30 14:08:06,14.98335057,0.0003151,70.0009,52.1812,272.0279,88.052,-0.00011473,-1.462e-05,0.0,0 STARLINK-5074,1 55438U 23014AZ  24090.58896542 -.00001462  00000-0 -11473-3 0  9991,2 55438  70.0009  52.1812 0003151 272.0279  88.0520 14.98335057 65842,6950.177,96.107,574.232,569.852,0.0
55438.0,STARLINK-5074,PAYLOAD,2024-03-30 22:08:47,14.98331075,0.0003055,70.0009,51.3399,273.0197,87.0612,-5.2836e-05,-7.23e-06,0.0,0 STARLINK-5074,1 55438U 23014AZ  24090.92276632 -.00000723  00000-0 -52836-4 0  9999,2 55438  70.0009  51.3399 0003055 273.0197  87.0612 14.98331075 65898,6950.19,96.107,574.178,569.931,0.0
55438.0,STARLINK-5074,PAYLOAD,2024-03-31 04:33:19,14.98336611,0.0002939,70.0009,50.6666,272.0288,88.0535,-9.1557e-05,-1.185e-05,0.0,0 STARLINK-5074,1 55438U 23014AZ  24091.18980349 -.00001185  00000-0 -91557-4 0  9991,2 55438  70.0009  50.6666 0002939 272.0288  88.0535 14.98336611 64993,6950.172,96.107,574.08,569.995,0.0
55438.0,STARLINK-5074,PAYLOAD,2024-03-31 07:45:34,14.98335327,0.0003017,70.0011,50.3302,272.9736,87.1078,1.4664e-05,8.2e-07,0.0,0 STARLINK-5074,1 55438U 23014AZ  24091.32332106  .00000082  00000-0  14664-4 0  9996,2 55438  70.0011  50.3302 0003017 272.9736  87.1078 14.98335327 65957,6950.176,96.107,574.138,569.945,0.0
55438.0,STARLINK-5074,PAYLOAD,2024-03-31 22:10:47,14.98329358,0.0002885,70.0014,48.8147,270.2175,89.8654,3.3576e-05,3.08e-06,0.0,0 STARLINK-5074,1 55438U 23014AZ  24091.92416281  .00000308  00000-0  33576-4 0  9993,2 55438  70.0014  48.8147 0002885 270.2175  89.8654 14.98329358 66046,6950.195,96.107,574.065,570.055,0.0
55438.0,STARLINK-5074,PAYLOAD,2024-04-01 06:11:28,14.98318297,0.0002601,70.0015,47.9721,266.7898,93.2964,-5.4177e-05,-7.39e-06,0.0,0 STARLINK-5074,1 55438U 23014AZ  24092.25797177 -.00000739  00000-0 -54177-4 0  9996,2 55438  70.0015  47.9721 0002601 266.7898  93.2964 14.98318297 65157,6950.229,96.108,573.902,570.286,0.0
55438.0,STARLINK-5074,PAYLOAD,2024-04-01 14:12:08,14.98334115,0.0002845,70.0014,47.131,273.4901,86.5932,-0.00036577,-4.455e-05,0.0,0 STARLINK-5074,1 55438U 23014AZ  24092.59177064 -.00004455  00000-0 -36577-3 0  9992,2 55438  70.0014  47.1310 0002845 273.4901  86.5932 14.98334115 66149,6950.18,96.107,574.022,570.068,0.0
55438.0,STARLINK-5074,PAYLOAD,2024-04-02 03:01:13,14.98329654,0.000282,70.0005,45.7842,264.5194,95.5644,2.547e-05,2.11e-06,0.0,0 STARLINK-5074,1 55438U 23014AZ  24093.12584527  .00000211  00000-0  25470-4 0  9993,2 55438  70.0005  45.7842 0002820 264.5194  95.5644 14.98329654 65287,6950.194,96.107,574.019,570.099,0.0
55438.0,STARLINK-5074,PAYLOAD,2024-04-02 14:14:09,14.98330554,0.0002773,70.001,44.6064,267.7453,92.3389,-3.7149e-05,-5.36e-06,0.0,0 STARLINK-5074,1 55438U 23014AZ  24093.59316670 -.00000536  00000-0 -37149-4 0  9994,2 55438  70.0010  44.6064 0002773 267.7453  92.3389 14.98330554 66291,6950.191,96.107,573.983,570.129,0.0
55438.0,STARLINK-5074,PAYLOAD,2024-04-02 20:38:41,14.98328787,0.0002932,70.0008,43.933,269.7474,90.3349,-3.2006e-05,-4.75e-06,0.0,0 STARLINK-5074,1 55438U 23014AZ  24093.86020782 -.00000475  00000-0 -32006-4 0  9999,2 55438  70.0008  43.9330 0002932 269.7474  90.3349 14.98328787 66332,6950.197,96.107,574.099,570.024,0.0
55438.0,STARLINK-5074,PAYLOAD,2024-04-03 03:03:14,14.98330266,0.0002936,70.0009,43.2603,271.1968,88.8854,-1.8973e-05,-3.19e-06,0.0,0 STARLINK-5074,1 55438U 23014AZ  24094.12724694 -.00000319  00000-0 -18973-4 0  9996,2 55438  70.0009  43.2603 0002936 271.1968  88.8854 14.98330266 65436,6950.192,96.107,574.098,570.016,0.0
55438.0,STARLINK-5074,PAYLOAD,2024-04-03 14:16:10,14.98328402,0.0002837,70.0008,42.0819,271.4184,88.665,4.9431e-05,4.97e-06,0.0,0 STARLINK-5074,1 55438U 23014AZ  24094.59456627  .00000497  00000-0  49431-4 0  9993,2 55438  70.0008  42.0819 0002837 271.4184  88.6650 14.98328402 66447,6950.198,96.107,574.035,570.091,0.0
55438.0,STARLINK-5074,PAYLOAD,2024-04-03 20:40:42,14.98328917,0.0002786,70.0008,41.409,271.5786,88.5054,3.0159e-05,2.67e-06,0.0,0 STARLINK-5074,1 55438U 23014AZ  24094.86160755  .00000267  00000-0  30159-4 0  9999,2 55438  70.0008  41.4090 0002786 271.5786  88.5054 14.98328917 66485,6950.196,96.107,573.998,570.125,0.0
